{
    "links": {
        "self": "http://www.neowsapp.com/rest/v1/neo/54016731?api_key=iIulBulltgU6a56xZRHN4H3l9WmuAYTsLGpBGhQ2"
    },
    "id": "54016731",
    "neo_reference_id": "54016731",
    "name": "(2020 HL5)",
    "designation": "2020 HL5",
    "nasa_jpl_url": "http://ssd.jpl.nasa.gov/sbdb.cgi?sstr=54016731",
    "absolute_magnitude_h": 20.721,
    "estimated_diameter": {
        "kilometers": {
            "estimated_diameter_min": 0.1907018809,
            "estimated_diameter_max": 0.4264223692
        },
        "meters": {
            "estimated_diameter_min": 190.7018809335,
            "estimated_diameter_max": 426.4223692045
        },
        "miles": {
            "estimated_diameter_min": 0.1184966185,
            "estimated_diameter_max": 0.264966494
        },
        "feet": {
            "estimated_diameter_min": 625.662359042,
            "estimated_diameter_max": 1399.0235657808
        }
    },
    "is_potentially_hazardous_asteroid": false,
    "close_approach_data": [
        {
            "close_approach_date": "2017-10-02",
            "close_approach_date_full": "2017-Oct-02 12:17",
            "epoch_date_close_approach": 1506946620000,
            "relative_velocity": {
                "kilometers_per_second": "24.9445804465",
                "kilometers_per_hour": "89800.4896073186",
                "miles_per_hour": "55798.5320007253"
            },
            "miss_distance": {
                "astronomical": "0.4929848041",
                "lunar": "191.7710887949",
                "kilometers": "73749476.635727267",
                "miles": "45825799.8108676046"
            },
            "orbiting_body": "Earth"
        },
        {
            "close_approach_date": "2019-11-18",
            "close_approach_date_full": "2019-Nov-18 19:14",
            "epoch_date_close_approach": 1574104440000,
            "relative_velocity": {
                "kilometers_per_second": "14.8028078468",
                "kilometers_per_hour": "53290.1082484699",
                "miles_per_hour": "33112.4008725007"
            },
            "miss_distance": {
                "astronomical": "0.2278107869",
                "lunar": "88.6183961041",
                "kilometers": "34080008.483263903",
                "miles": "21176335.3117837414"
            },
            "orbiting_body": "Earth"
        },
        {
            "close_approach_date": "2125-10-05",
            "close_approach_date_full": "2125-Oct-05 10:38",
            "epoch_date_close_approach": 4915334280000,
            "relative_velocity": {
                "kilometers_per_second": "24.6518797851",
                "kilometers_per_hour": "88746.7672262902",
                "miles_per_hour": "55143.7898912468"
            },
            "miss_distance": {
                "astronomical": "0.4831045005",
                "lunar": "187.9276506945",
                "kilometers": "72271404.262213935",
                "miles": "44907368.226204903"
            },
            "orbiting_body": "Earth"
        }
    ],
    "orbital_data": {
        "orbit_id": "3",
        "orbit_determination_date": "2020-04-28 07:11:51",
        "first_observation_date": "2020-04-21",
        "last_observation_date": "2020-04-27",
        "data_arc_in_days": 6,
        "observations_used": 21,
        "orbit_uncertainty": "8",
        "minimum_orbit_intersection": ".195624",
        "jupiter_tisserand_invariant": "4.115",
        "epoch_osculation": "2458963.5",
        "eccentricity": ".5160439133421948",
        "semi_major_axis": "1.627310799731945",
        "inclination": "16.7686052159611",
        "ascending_node_longitude": "99.21546081304052",
        "orbital_period": "758.2356274004645",
        "perihelion_distance": ".7875469664142554",
        "perihelion_argument": "357.5451993492984",
        "aphelion_distance": "2.467074633049634",
        "perihelion_time": "2458830.073820456867",
        "mean_anomaly": "63.34894180613183",
        "mean_motion": ".4747864476300384",
        "equinox": "J2000",
        "orbit_class": {
            "orbit_class_type": "APO",
            "orbit_class_description": "Near-Earth asteroid orbits which cross the Earth’s orbit similar to that of 1862 Apollo",
            "orbit_class_range": "a (semi-major axis) > 1.0 AU; q (perihelion) < 1.017 AU"
        }
    },
    "is_sentry_object": false
}